OBJECT_NAME,OBJECT_ID,EPOCH,MEAN_MOTION,ECCENTRICITY,INCLINATION,RA_OF_ASC_NODE,ARG_OF_PERICENTER,MEAN_ANOMALY,EPHEMERIS_TYPE,CLASSIFICATION_TYPE,NORAD_CAT_ID,ELEMENT_SET_NO,REV_AT_EPOCH,BSTAR,MEAN_MOTION_DOT,MEAN_MOTION_DDOT
QIANFAN-148,2026-108D,2026-06-10T11:11:43.209312,14.11345070,.00150548,89.0099,22.9630,119.6450,240.6236,0,U,69107,999,339,-.12168621E+1,-.2039091E-1,0
QIANFAN-149,2026-108E,2026-06-10T11:07:12.468000,14.10989784,.00144112,89.0113,22.9632,116.1784,244.0885,0,U,69108,999,339,-.12342973E+1,-.2053629E-1,0
QIANFAN-150,2026-108F,2026-06-10T12:33:40.063104,14.12417471,.00150995,89.0110,22.9544,126.9279,233.3292,0,U,69109,999,340,-.11835163E+1,-.2023708E-1,0
QIANFAN-151,2026-108G,2026-06-10T12:25:09.629184,14.12211344,.00149701,89.0108,22.9527,126.3017,233.9553,0,U,69110,999,340,-.11971123E+1,-.2038099E-1,0
QIANFAN-152,2026-108H,2026-06-10T13:57:54.190944,14.15887257,.00154665,89.0117,22.9437,132.5835,227.6661,0,U,69111,999,341,.26709765E-4,.67E-6,0
QIANFAN-153,2026-108J,2026-06-10T12:07:34.128768,14.13037178,.00160188,89.0104,22.9505,135.6889,224.5583,0,U,69112,999,340,-.11903658E+1,-.2056445E-1,0
QIANFAN-154,2026-108K,2026-06-10T13:39:01.699488,14.16344672,.00159965,89.0118,22.9422,132.4187,227.8358,0,U,69113,999,341,.28114802E-4,.7E-6,0
QIANFAN-155,2026-108L,2026-06-10T15:26:54.227616,14.15884094,.00167981,89.0118,22.9350,132.8551,227.4052,0,U,69114,999,342,.25713015E-4,.65E-6,0
QIANFAN-156,2026-108M,2026-06-10T15:10:31.688544,14.17515862,.0016813,89.0122,22.9341,133.9751,226.2827,0,U,69115,999,342,.30829818E-4,.77E-6,0
QIANFAN-157,2026-108N,2026-06-10T12:47:14.213760,14.15103639,.00188917,89.0108,22.9364,150.0677,210.1595,0,U,69116,999,341,-.11398553E+1,-.2047294E-1,0
QIANFAN-158,2026-108P,2026-06-10T09:51:28.203840,14.15152601,.00143905,89.0112,22.9549,146.1111,214.0998,0,U,69117,999,339,-.10977546E+1,-.1977271E-1,0
QIANFAN-159,2026-108Q,2026-06-10T11:25:58.319616,14.15958241,.0017745,89.0109,22.9465,153.4031,206.8071,0,U,69118,999,340,-.11000318E+1,-.2009722E-1,0
QIANFAN-160,2026-108R,2026-06-10T11:20:11.926464,14.16320013,.00187167,89.0110,22.9462,154.8698,205.3405,0,U,69119,999,340,-.11098208E+1,-.2039311E-1,0
QIANFAN-161,2026-108S,2026-06-10T11:13:24.934080,14.16376315,.00184528,89.0113,22.9458,154.4487,205.7617,0,U,69120,999,340,-.10940324E+1,-.2014226E-1,0
QIANFAN-162,2026-108T,2026-06-10T14:32:22.038432,14.20400566,.00161589,89.0117,22.9291,136.2454,224.0021,0,U,69121,999,342,.30282465E-4,.79E-6,0
SMILE,2026-109A,2026-05-24T15:40:35.120928,14.57062785,.00091232,70.0007,229.2745,259.5159,100.4951,0,U,69123,999,80,-.42378883E-3,-.1976E-4,0
STARLINK-37726,2026-110A,2026-06-10T13:55:28.880832,15.49201266,.00014886,97.2853,357.7375,89.9054,270.2368,0,U,69124,999,457,.44010925E-3,.23929E-3,0
STARLINK-37722,2026-110B,2026-06-10T14:00:01.999872,15.49205028,.00014824,97.2844,357.9039,60.9201,335.7853,0,U,69125,999,464,.54523994E-3,.29692E-3,0
STARLINK-37715,2026-110C,2026-06-10T14:00:01.999872,15.52416835,.0002276,97.2848,357.9934,105.4666,141.6699,0,U,69126,999,459,-.46919179E-1,-.2536955E-1,0
STARLINK-37706,2026-110D,2026-06-10T14:00:01.999872,15.52885829,.00019658,97.2847,357.9940,110.0338,147.7202,0,U,69127,999,459,-.5197076E-1,-.2817235E-1,0
STARLINK-37723,2026-110E,2026-06-10T14:00:01.999872,15.53076455,.00019553,97.2848,358.0054,94.4434,174.7890,0,U,69128,999,459,-.4613957E-1,-.2552831E-1,0
STARLINK-37720,2026-110F,2026-06-10T13:42:50.023584,15.49194787,.00014837,97.2855,357.7489,86.8808,273.2612,0,U,69129,999,457,.16969953E-3,.9152E-4,0
STARLINK-37533,2026-110G,2026-06-10T14:00:01.999872,15.54129414,.00016573,97.2846,358.0186,93.7538,206.7822,0,U,69130,999,459,-.43999064E-1,-.2482151E-1,0
STARLINK-37530,2026-110H,2026-06-10T14:00:01.999872,15.54477847,.00017332,97.2846,358.0239,93.2336,217.9844,0,U,69131,999,459,-.43716991E-1,-.2495966E-1,0
STARLINK-37660,2026-110J,2026-06-10T14:00:01.999872,15.49102239,.0000901,97.2843,357.9379,102.7031,18.3885,0,U,69132,999,459,.70435085E-3,.38287E-3,0
STARLINK-37633,2026-110K,2026-06-10T14:00:01.999872,15.49104189,.0001052,97.2845,357.9521,113.5205,38.5710,0,U,69133,999,459,.64023476E-3,.3478E-3,0
STARLINK-37361,2026-110L,2026-06-10T14:00:01.999872,15.55534702,.00015218,97.2839,358.0348,104.0062,237.5249,0,U,69134,999,459,-.41857272E-1,-.2486248E-1,0
STARLINK-37372,2026-110M,2026-06-10T14:00:01.999872,15.49188270,.00011234,97.2851,357.9623,97.8278,73.4025,0,U,69135,999,459,.66337162E-3,.36153E-3,0
STARLINK-37531,2026-110N,2026-06-10T14:00:01.999872,15.56703844,.00016947,97.2844,358.0193,86.3606,221.9710,0,U,69136,999,459,-.40084597E-1,-.248707E-1,0
