0 QIANFAN-148
1 69107U 26108D   26161.46647233 -.02039091  00000-0 -12169+1 0  9996
2 69107  89.0099  22.9630 0015055 119.6450 240.6236 14.11345070  3398
0 QIANFAN-149
1 69108U 26108E   26161.46333875 -.02053629  00000-0 -12343+1 0  9998
2 69108  89.0113  22.9632 0014411 116.1784 244.0885 14.10989784  3398
0 QIANFAN-150
1 69109U 26108F   26161.52338036 -.02023708  00000-0 -11835+1 0  9990
2 69109  89.0110  22.9544 0015100 126.9279 233.3292 14.12417471  3408
0 QIANFAN-151
1 69110U 26108G   26161.51747256 -.02038099  00000-0 -11971+1 0  9999
2 69110  89.0108  22.9527 0014970 126.3017 233.9553 14.12211344  3403
0 QIANFAN-152
1 69111U 26108H   26161.58187721  .00000067  00000-0  26710-4 0  9993
2 69111  89.0117  22.9437 0015466 132.5835 227.6661 14.15887257  3418
0 QIANFAN-153
1 69112U 26108J   26161.50525612 -.02056445  00000-0 -11904+1 0  9991
2 69112  89.0104  22.9505 0016019 135.6889 224.5583 14.13037178  3404
0 QIANFAN-154
1 69113U 26108K   26161.56876967  .00000070  00000-0  28115-4 0  9995
2 69113  89.0118  22.9422 0015996 132.4187 227.8358 14.16344672  3417
0 QIANFAN-155
1 69114U 26108L   26161.64368319  .00000065  00000-0  25713-4 0  9997
2 69114  89.0118  22.9350 0016798 132.8551 227.4052 14.15884094  3422
0 QIANFAN-156
1 69115U 26108M   26161.63231121  .00000077  00000-0  30830-4 0  9996
2 69115  89.0122  22.9341 0016813 133.9751 226.2827 14.17515862  3423
0 QIANFAN-157
1 69116U 26108N   26161.53280340 -.02047294  00000-0 -11399+1 0  9994
2 69116  89.0108  22.9364 0018892 150.0677 210.1595 14.15103639  3415
0 QIANFAN-158
1 69117U 26108P   26161.41074310 -.01977271  00000-0 -10978+1 0  9998
2 69117  89.0112  22.9549 0014391 146.1111 214.0998 14.15152601  3395
0 QIANFAN-159
1 69118U 26108Q   26161.47636944 -.02009722  00000-0 -11000+1 0  9997
2 69118  89.0109  22.9465 0017745 153.4031 206.8071 14.15958241  3404
0 QIANFAN-160
1 69119U 26108R   26161.47236026 -.02039311  00000-0 -11098+1 0  9999
2 69119  89.0110  22.9462 0018717 154.8698 205.3405 14.16320013  3404
0 QIANFAN-161
1 69120U 26108S   26161.46764970 -.02014226  00000-0 -10940+1 0  9997
2 69120  89.0113  22.9458 0018453 154.4487 205.7617 14.16376315  3408
0 QIANFAN-162
1 69121U 26108T   26161.60581063  .00000079  00000-0  30282-4 0  9996
2 69121  89.0117  22.9291 0016159 136.2454 224.0021 14.20400566  3427
0 SMILE
1 69123U 26109A   26144.65318427 -.00001976  00000-0 -42379-3 0  9995
2 69123  70.0007 229.2745 0009123 259.5159 100.4951 14.57062785   802
0 STARLINK-37726
1 69124U 26110A   26161.58019538  .00023929  00000-0  44011-3 0  9995
2 69124  97.2853 357.7375 0001489  89.9054 270.2368 15.49201266  4572
0 STARLINK-37722
1 69125U 26110B   26161.58335648  .00029692  00000-0  54524-3 0  9992
2 69125  97.2844 357.9039 0001482  60.9201 335.7853 15.49205028  4642
0 STARLINK-37715
1 69126U 26110C   26161.58335648 -.02536955  00000-0 -46919-1 0  9999
2 69126  97.2848 357.9934 0002276 105.4666 141.6699 15.52416835  4593
0 STARLINK-37706
1 69127U 26110D   26161.58335648 -.02817235  00000-0 -51971-1 0  9997
2 69127  97.2847 357.9940 0001966 110.0338 147.7202 15.52885829  4593
0 STARLINK-37723
1 69128U 26110E   26161.58335648 -.02552831  00000-0 -46140-1 0  9998
2 69128  97.2848 358.0054 0001955  94.4434 174.7890 15.53076455  4594
0 STARLINK-37720
1 69129U 26110F   26161.57141231  .00009152  00000-0  16970-3 0  9990
2 69129  97.2855 357.7489 0001484  86.8808 273.2612 15.49194787  4577
0 STARLINK-37533
1 69130U 26110G   26161.58335648 -.02482151  00000-0 -43999-1 0  9997
2 69130  97.2846 358.0186 0001657  93.7538 206.7822 15.54129414  4593
0 STARLINK-37530
1 69131U 26110H   26161.58335648 -.02495966  00000-0 -43717-1 0  9994
2 69131  97.2846 358.0239 0001733  93.2336 217.9844 15.54477847  4593
0 STARLINK-37660
1 69132U 26110J   26161.58335648  .00038287  00000-0  70435-3 0  9999
2 69132  97.2843 357.9379 0000901 102.7031  18.3885 15.49102239  4590
0 STARLINK-37633
1 69133U 26110K   26161.58335648  .00034780  00000-0  64023-3 0  9990
2 69133  97.2845 357.9521 0001052 113.5205  38.5710 15.49104189  4590
0 STARLINK-37361
1 69134U 26110L   26161.58335648 -.02486248  00000-0 -41857-1 0  9993
2 69134  97.2839 358.0348 0001522 104.0062 237.5249 15.55534702  4594
0 STARLINK-37372
1 69135U 26110M   26161.58335648  .00036153  00000-0  66337-3 0  9998
2 69135  97.2851 357.9623 0001123  97.8278  73.4025 15.49188270  4595
0 STARLINK-37531
1 69136U 26110N   26161.58335648 -.02487070  00000-0 -40085-1 0  9991
2 69136  97.2844 358.0193 0001695  86.3606 221.9710 15.56703844  4593
